STARLINK-6085           
1 57115U 23090Q   26183.74880006  .00008361  00000+0  41336-3 0  9993
2 57115  42.9987 345.4892 0020509 230.5991 129.3042 15.17943256168009
STARLINK-31927          
1 59837U 24097C   26183.81580778 -.00001616  00000+0 -49245-4 0  9991
2 59837  43.0024 344.2104 0001014 275.3445  84.7291 15.27567316119523
STARLINK-35501          
1 66436U 25259Q   26183.82728169  .00032230  00000+0  11761-2 0  9998
2 66436  43.0032 343.8039 0001488 258.3039 101.7646 15.27567316 37109
STARLINK-34724          
1 66442U 25259W   26183.81843417  .00032400  00000+0  11821-2 0  9994
2 66442  43.0031 344.5978 0001257 273.0845  86.9863 15.27569758 37093
STARLINK-35360          
1 66444U 25259Y   26183.82471119  .00032075  00000+0  11703-2 0  9990
2 66444  43.0032 343.7786 0001614 262.4642  97.6026 15.27571840 37105
STARLINK-35355          
1 66448U 25259AC  26183.81200950  .00030640  00000+0  11187-2 0  9998
2 66448  43.0014 344.5450 0001726 269.9120  90.1534 15.27569272 37099
