{
  "schema": "int-temerity-real-tle-snapshot/v1",
  "source": "celestrak",
  "group": "STARLINK",
  "format": "celestrak-gp-json",
  "source_url": "https://celestrak.org/NORAD/elements/gp.php?NAME=STARLINK&FORMAT=JSON",
  "downloaded_at": "2026-07-03T12:25:16.552Z",
  "generated_at": "2026-07-03T12:25:35.465Z",
  "fingerprint": "eb0f9db4",
  "shell_id": "starlink-real-43deg-490km",
  "catalog_count": 10717,
  "shell_count": 3264,
  "selected_count": 1584,
  "mean_altitude_km": 490.23,
  "mean_inclination_deg": 43.0019,
  "mean_mean_motion_rev_per_day": 15.27566421,
  "layout": {
    "planes": 72,
    "satellites_per_plane": 22,
    "selection_strategy": "largest-shell-raan-clusters-even-slot-sampling",
    "raan_cluster_threshold_deg": 2.5,
    "selected_shell_key": "43.0deg-500km"
  },
  "satellites": [
    {
      "satellite_id": "P69-S05",
      "norad_id": 66436,
      "satellite_name": "STARLINK-35501",
      "cospar_id": "2025-259Q",
      "shell_id": "starlink-real-43deg-490km",
      "plane_id": 68,
      "slot_id": 4,
      "epoch": "2026-07-02T19:51:17.138016",
      "inclination": 43.0032,
      "raan": 343.8039,
      "eccentricity": 0.0001488,
      "argument_of_perigee": 258.3039,
      "mean_anomaly": 101.76459999999997,
      "mean_motion": 15.27567316,
      "bstar": 0.0011761,
      "status": "active",
      "raw_omm": {
        "OBJECT_NAME": "STARLINK-35501",
        "OBJECT_ID": "2025-259Q",
        "EPOCH": "2026-07-02T19:51:17.138016",
        "MEAN_MOTION": 15.27567316,
        "ECCENTRICITY": 0.0001488,
        "INCLINATION": 43.0032,
        "RA_OF_ASC_NODE": 343.8039,
        "ARG_OF_PERICENTER": 258.3039,
        "MEAN_ANOMALY": 101.7646,
        "EPHEMERIS_TYPE": 0,
        "CLASSIFICATION_TYPE": "U",
        "NORAD_CAT_ID": 66436,
        "ELEMENT_SET_NO": 999,
        "REV_AT_EPOCH": 3710,
        "BSTAR": 0.0011761,
        "MEAN_MOTION_DOT": 0.0003223,
        "MEAN_MOTION_DDOT": 0
      },
      "source": "celestrak",
      "source_url": "https://celestrak.org/NORAD/elements/gp.php?NAME=STARLINK&FORMAT=JSON",
      "catalog_fingerprint": "eb0f9db4"
    },
    {
      "satellite_id": "P69-S06",
      "norad_id": 66444,
      "satellite_name": "STARLINK-35360",
      "cospar_id": "2025-259Y",
      "shell_id": "starlink-real-43deg-490km",
      "plane_id": 68,
      "slot_id": 5,
      "epoch": "2026-07-02T19:47:35.046816",
      "inclination": 43.0032,
      "raan": 343.7786,
      "eccentricity": 0.0001614,
      "argument_of_perigee": 262.4642,
      "mean_anomaly": 97.6026,
      "mean_motion": 15.2757184,
      "bstar": 0.0011703,
      "status": "active",
      "raw_omm": {
        "OBJECT_NAME": "STARLINK-35360",
        "OBJECT_ID": "2025-259Y",
        "EPOCH": "2026-07-02T19:47:35.046816",
        "MEAN_MOTION": 15.2757184,
        "ECCENTRICITY": 0.0001614,
        "INCLINATION": 43.0032,
        "RA_OF_ASC_NODE": 343.7786,
        "ARG_OF_PERICENTER": 262.4642,
        "MEAN_ANOMALY": 97.6026,
        "EPHEMERIS_TYPE": 0,
        "CLASSIFICATION_TYPE": "U",
        "NORAD_CAT_ID": 66444,
        "ELEMENT_SET_NO": 999,
        "REV_AT_EPOCH": 3710,
        "BSTAR": 0.0011703,
        "MEAN_MOTION_DOT": 0.00032075,
        "MEAN_MOTION_DDOT": 0
      },
      "source": "celestrak",
      "source_url": "https://celestrak.org/NORAD/elements/gp.php?NAME=STARLINK&FORMAT=JSON",
      "catalog_fingerprint": "eb0f9db4"
    },
    {
      "satellite_id": "P69-S07",
      "norad_id": 57115,
      "satellite_name": "STARLINK-6085",
      "cospar_id": "2023-090Q",
      "shell_id": "starlink-real-43deg-490km",
      "plane_id": 68,
      "slot_id": 6,
      "epoch": "2026-07-02T17:58:16.325184",
      "inclination": 42.9987,
      "raan": 345.4892,
      "eccentricity": 0.0020509,
      "argument_of_perigee": 230.59910000000002,
      "mean_anomaly": 129.30420000000004,
      "mean_motion": 15.17943256,
      "bstar": 0.00041336,
      "status": "active",
      "raw_omm": {
        "OBJECT_NAME": "STARLINK-6085",
        "OBJECT_ID": "2023-090Q",
        "EPOCH": "2026-07-02T17:58:16.325184",
        "MEAN_MOTION": 15.17943256,
        "ECCENTRICITY": 0.0020509,
        "INCLINATION": 42.9987,
        "RA_OF_ASC_NODE": 345.4892,
        "ARG_OF_PERICENTER": 230.5991,
        "MEAN_ANOMALY": 129.3042,
        "EPHEMERIS_TYPE": 0,
        "CLASSIFICATION_TYPE": "U",
        "NORAD_CAT_ID": 57115,
        "ELEMENT_SET_NO": 999,
        "REV_AT_EPOCH": 16800,
        "BSTAR": 0.00041336,
        "MEAN_MOTION_DOT": 0.00008361,
        "MEAN_MOTION_DDOT": 0
      },
      "source": "celestrak",
      "source_url": "https://celestrak.org/NORAD/elements/gp.php?NAME=STARLINK&FORMAT=JSON",
      "catalog_fingerprint": "eb0f9db4"
    },
    {
      "satellite_id": "P69-S08",
      "norad_id": 66442,
      "satellite_name": "STARLINK-34724",
      "cospar_id": "2025-259W",
      "shell_id": "starlink-real-43deg-490km",
      "plane_id": 68,
      "slot_id": 7,
      "epoch": "2026-07-02T19:38:32.712288",
      "inclination": 43.0031,
      "raan": 344.5978,
      "eccentricity": 0.0001257,
      "argument_of_perigee": 273.08449999999993,
      "mean_anomaly": 86.98630000000003,
      "mean_motion": 15.27569758,
      "bstar": 0.0011821,
      "status": "active",
      "raw_omm": {
        "OBJECT_NAME": "STARLINK-34724",
        "OBJECT_ID": "2025-259W",
        "EPOCH": "2026-07-02T19:38:32.712288",
        "MEAN_MOTION": 15.27569758,
        "ECCENTRICITY": 0.0001257,
        "INCLINATION": 43.0031,
        "RA_OF_ASC_NODE": 344.5978,
        "ARG_OF_PERICENTER": 273.0845,
        "MEAN_ANOMALY": 86.9863,
        "EPHEMERIS_TYPE": 0,
        "CLASSIFICATION_TYPE": "U",
        "NORAD_CAT_ID": 66442,
        "ELEMENT_SET_NO": 999,
        "REV_AT_EPOCH": 3709,
        "BSTAR": 0.0011821,
        "MEAN_MOTION_DOT": 0.000324,
        "MEAN_MOTION_DDOT": 0
      },
      "source": "celestrak",
      "source_url": "https://celestrak.org/NORAD/elements/gp.php?NAME=STARLINK&FORMAT=JSON",
      "catalog_fingerprint": "eb0f9db4"
    },
    {
      "satellite_id": "P69-S09",
      "norad_id": 59837,
      "satellite_name": "STARLINK-31927",
      "cospar_id": "2024-097C",
      "shell_id": "starlink-real-43deg-490km",
      "plane_id": 68,
      "slot_id": 8,
      "epoch": "2026-07-02T19:34:45.792192",
      "inclination": 43.0024,
      "raan": 344.21039999999994,
      "eccentricity": 0.0001014,
      "argument_of_perigee": 275.3444999999999,
      "mean_anomaly": 84.72910000000002,
      "mean_motion": 15.27567316,
      "bstar": -0.000049245,
      "status": "active",
      "raw_omm": {
        "OBJECT_NAME": "STARLINK-31927",
        "OBJECT_ID": "2024-097C",
        "EPOCH": "2026-07-02T19:34:45.792192",
        "MEAN_MOTION": 15.27567316,
        "ECCENTRICITY": 0.0001014,
        "INCLINATION": 43.0024,
        "RA_OF_ASC_NODE": 344.2104,
        "ARG_OF_PERICENTER": 275.3445,
        "MEAN_ANOMALY": 84.7291,
        "EPHEMERIS_TYPE": 0,
        "CLASSIFICATION_TYPE": "U",
        "NORAD_CAT_ID": 59837,
        "ELEMENT_SET_NO": 999,
        "REV_AT_EPOCH": 11952,
        "BSTAR": -0.000049245,
        "MEAN_MOTION_DOT": -0.00001616,
        "MEAN_MOTION_DDOT": 0
      },
      "source": "celestrak",
      "source_url": "https://celestrak.org/NORAD/elements/gp.php?NAME=STARLINK&FORMAT=JSON",
      "catalog_fingerprint": "eb0f9db4"
    },
    {
      "satellite_id": "P69-S10",
      "norad_id": 66448,
      "satellite_name": "STARLINK-35355",
      "cospar_id": "2025-259AC",
      "shell_id": "starlink-real-43deg-490km",
      "plane_id": 68,
      "slot_id": 9,
      "epoch": "2026-07-02T19:29:17.620800",
      "inclination": 43.0014,
      "raan": 344.5450000000001,
      "eccentricity": 0.0001726,
      "argument_of_perigee": 269.91200000000003,
      "mean_anomaly": 90.15340000000003,
      "mean_motion": 15.27569272,
      "bstar": 0.0011187,
      "status": "active",
      "raw_omm": {
        "OBJECT_NAME": "STARLINK-35355",
        "OBJECT_ID": "2025-259AC",
        "EPOCH": "2026-07-02T19:29:17.620800",
        "MEAN_MOTION": 15.27569272,
        "ECCENTRICITY": 0.0001726,
        "INCLINATION": 43.0014,
        "RA_OF_ASC_NODE": 344.545,
        "ARG_OF_PERICENTER": 269.912,
        "MEAN_ANOMALY": 90.1534,
        "EPHEMERIS_TYPE": 0,
        "CLASSIFICATION_TYPE": "U",
        "NORAD_CAT_ID": 66448,
        "ELEMENT_SET_NO": 999,
        "REV_AT_EPOCH": 3709,
        "BSTAR": 0.0011187,
        "MEAN_MOTION_DOT": 0.0003064,
        "MEAN_MOTION_DDOT": 0
      },
      "source": "celestrak",
      "source_url": "https://celestrak.org/NORAD/elements/gp.php?NAME=STARLINK&FORMAT=JSON",
      "catalog_fingerprint": "eb0f9db4"
    }
  ]
}